[
    {
        "Altitude(m)": 617719.7957803862,
        "Argument of Periapsis(deg)": 0.0,
        "Eccentricity": 0.0,
        "Inclination(deg)": 60.0,
        "Latitude(deg)": -41.10270734502222,
        "Longitude(deg)": -79.90536223889966,
        "Mean Anomaly(deg)": -130.90909999999997,
        "RAAN(deg)": 170.00000000000003,
        "Satellite Name": "Test1 762",
        "Satellite Number": 762,
        "Semi-Major Axis(m)": 6980739.136638005,
        "Time(s)": 0
    },
    {
        "Altitude(m)": 617911.331771706,
        "Argument of Periapsis(deg)": 0.00010418945913296404,
        "Eccentricity": 0.0,
        "Inclination(deg)": 60.0,
        "Latitude(deg)": -41.56589940563727,
        "Longitude(deg)": -79.40095532104667,
        "Mean Anomaly(deg)": -130.28899385453815,
        "RAAN(deg)": 169.99957995086027,
        "Satellite Name": "Test1 762",
        "Satellite Number": 762,
        "Semi-Major Axis(m)": 6980739.136638005,
        "Time(s)": 10
    },
    {
        "Altitude(m)": 618101.7425283946,
        "Argument of Periapsis(deg)": 0.0002083789182659281,
        "Eccentricity": 0.0,
        "Inclination(deg)": 60.0,
        "Latitude(deg)": -42.02641295800024,
        "Longitude(deg)": -78.8887409949044,
        "Mean Anomaly(deg)": -129.66888770907627,
        "RAAN(deg)": 169.99915990172053,
        "Satellite Name": "Test1 762",
        "Satellite Number": 762,
        "Semi-Major Axis(m)": 6980739.136638005,
        "Time(s)": 20
    },
    {
        "Altitude(m)": 618290.9550231167,
        "Argument of Periapsis(deg)": 0.00031256837739889213,
        "Eccentricity": 0.0,
        "Inclination(deg)": 60.0,
        "Latitude(deg)": -42.484167755126165,
        "Longitude(deg)": -78.36852457433953,
        "Mean Anomaly(deg)": -129.0487815636145,
        "RAAN(deg)": 169.99873985258077,
        "Satellite Name": "Test1 762",
        "Satellite Number": 762,
        "Semi-Major Axis(m)": 6980739.136638005,
        "Time(s)": 30
    },
    {
        "Altitude(m)": 618478.8966057681,
        "Argument of Periapsis(deg)": 0.0004167578365318562,
        "Eccentricity": 0.0,
        "Inclination(deg)": 60.0,
        "Latitude(deg)": -42.939081024963805,
        "Longitude(deg)": -77.84010757952936,
        "Mean Anomaly(deg)": -128.42867541815264,
        "RAAN(deg)": 169.99831980344106,
        "Satellite Name": "Test1 762",
        "Satellite Number": 762,
        "Semi-Major Axis(m)": 6980739.136638005,
        "Time(s)": 40
    },
    {
        "Altitude(m)": 618665.4950350964,
        "Argument of Periapsis(deg)": 0.0005209472956648203,
        "Eccentricity": 0.0,
        "Inclination(deg)": 60.0,
        "Latitude(deg)": -43.39106739228191,
        "Longitude(deg)": -77.30328883488185,
        "Mean Anomaly(deg)": -127.80856927269083,
        "RAAN(deg)": 169.99789975430127,
        "Satellite Name": "Test1 762",
        "Satellite Number": 762,
        "Semi-Major Axis(m)": 6980739.136638005,
        "Time(s)": 50
    },
    {
        "Altitude(m)": 618850.6785101849,
        "Argument of Periapsis(deg)": 0.0006251367547977843,
        "Eccentricity": 0.0,
        "Inclination(deg)": 60.0,
        "Latitude(deg)": -43.8400387999155,
        "Longitude(deg)": -76.75786407382948,
        "Mean Anomaly(deg)": -127.18846312722901,
        "RAAN(deg)": 169.99747970516154,
        "Satellite Name": "Test1 762",
        "Satellite Number": 762,
        "Semi-Major Axis(m)": 6980739.136638005,
        "Time(s)": 60
    },
    {
        "Altitude(m)": 619034.3757016758,
        "Argument of Periapsis(deg)": 0.0007293262139307483,
        "Eccentricity": 0.0,
        "Inclination(deg)": 60.0,
        "Latitude(deg)": -44.2859044296024,
        "Longitude(deg)": -76.20362556524199,
        "Mean Anomaly(deg)": -126.56835698176717,
        "RAAN(deg)": 169.9970596560218,
        "Satellite Name": "Test1 762",
        "Satellite Number": 762,
        "Semi-Major Axis(m)": 6980739.136638005,
        "Time(s)": 70
    },
    {
        "Altitude(m)": 619216.5157827667,
        "Argument of Periapsis(deg)": 0.0008335156730637124,
        "Eccentricity": 0.0,
        "Inclination(deg)": 60.0,
        "Latitude(deg)": -44.72857062267786,
        "Longitude(deg)": -75.64036327631852,
        "Mean Anomaly(deg)": -125.94825083630533,
        "RAAN(deg)": 169.99663960688207,
        "Satellite Name": "Test1 762",
        "Satellite Number": 762,
        "Semi-Major Axis(m)": 6980739.136638005,
        "Time(s)": 80
    },
    {
        "Altitude(m)": 619397.0284599937,
        "Argument of Periapsis(deg)": 0.0009377051321966765,
        "Eccentricity": 0.0,
        "Inclination(deg)": 60.0,
        "Latitude(deg)": -45.16794080092841,
        "Longitude(deg)": -75.06786454831402,
        "Mean Anomaly(deg)": -125.32814469084353,
        "RAAN(deg)": 169.9962195577423,
        "Satellite Name": "Test1 762",
        "Satellite Number": 762,
        "Semi-Major Axis(m)": 6980739.136638005,
        "Time(s)": 90
    },
    {
        "Altitude(m)": 619575.8440037251,
        "Argument of Periapsis(deg)": 0.0010418945913296407,
        "Eccentricity": 0.0,
        "Inclination(deg)": 60.0,
        "Latitude(deg)": -45.60391538794767,
        "Longitude(deg)": -74.48591380019937,
        "Mean Anomaly(deg)": -124.70803854538164,
        "RAAN(deg)": 169.99579950860257,
        "Satellite Name": "Test1 762",
        "Satellite Number": 762,
        "Semi-Major Axis(m)": 6980739.136638005,
        "Time(s)": 100
    },
    {
        "Altitude(m)": 619752.8932783939,
        "Argument of Periapsis(deg)": 0.0011460840504626045,
        "Eccentricity": 0.0,
        "Inclination(deg)": 60.0,
        "Latitude(deg)": -46.03639173137905,
        "Longitude(deg)": -73.89429377547714,
        "Mean Anomaly(deg)": -124.08793239991981,
        "RAAN(deg)": 169.99537945946284,
        "Satellite Name": "Test1 762",
        "Satellite Number": 762,
        "Semi-Major Axis(m)": 6980739.136638005,
        "Time(s)": 110
    },
    {
        "Altitude(m)": 619928.1077724684,
        "Argument of Periapsis(deg)": 0.0012502735095955685,
        "Eccentricity": 0.0,
        "Inclination(deg)": 60.0,
        "Latitude(deg)": -46.465264026477115,
        "Longitude(deg)": -73.2927853088539,
        "Mean Anomaly(deg)": -123.46782625445802,
        "RAAN(deg)": 169.9949594103231,
        "Satellite Name": "Test1 762",
        "Satellite Number": 762,
        "Semi-Major Axis(m)": 6980739.136638005,
        "Time(s)": 120
    },
    {
        "Altitude(m)": 620101.4196280921,
        "Argument of Periapsis(deg)": 0.0013544629687285324,
        "Eccentricity": 0.0,
        "Inclination(deg)": 60.0,
        "Latitude(deg)": -46.8904232414687,
        "Longitude(deg)": -72.68116712821126,
        "Mean Anomaly(deg)": -122.84772010899617,
        "RAAN(deg)": 169.99453936118334,
        "Satellite Name": "Test1 762",
        "Satellite Number": 762,
        "Semi-Major Axis(m)": 6980739.136638005,
        "Time(s)": 130
    },
    {
        "Altitude(m)": 620272.7616704473,
        "Argument of Periapsis(deg)": 0.0014586524278614966,
        "Eccentricity": 0.0,
        "Inclination(deg)": 60.0,
        "Latitude(deg)": -47.31175704524878,
        "Longitude(deg)": -72.05921720741568,
        "Mean Anomaly(deg)": -122.22761396353438,
        "RAAN(deg)": 169.9941193120436,
        "Satellite Name": "Test1 762",
        "Satellite Number": 762,
        "Semi-Major Axis(m)": 6980739.136638005,
        "Time(s)": 140
    },
    {
        "Altitude(m)": 620442.0674367864,
        "Argument of Periapsis(deg)": 0.0015628418869944607,
        "Eccentricity": 0.0,
        "Inclination(deg)": 60.0,
        "Latitude(deg)": -47.72914973800434,
        "Longitude(deg)": -71.42671264696132,
        "Mean Anomaly(deg)": -121.60750781807255,
        "RAAN(deg)": 169.99369926290387,
        "Satellite Name": "Test1 762",
        "Satellite Number": 762,
        "Semi-Major Axis(m)": 6980739.136638005,
        "Time(s)": 150
    },
    {
        "Altitude(m)": 620609.2712051406,
        "Argument of Periapsis(deg)": 0.0016670313461274247,
        "Eccentricity": 0.0,
        "Inclination(deg)": 60.0,
        "Latitude(deg)": -48.14248218541633,
        "Longitude(deg)": -70.78342959814896,
        "Mean Anomaly(deg)": -120.98740167261072,
        "RAAN(deg)": 169.99327921376414,
        "Satellite Name": "Test1 762",
        "Satellite Number": 762,
        "Semi-Major Axis(m)": 6980739.136638005,
        "Time(s)": 160
    },
    {
        "Altitude(m)": 620774.3080226546,
        "Argument of Periapsis(deg)": 0.0017712208052603888,
        "Eccentricity": 0.0,
        "Inclination(deg)": 60.0,
        "Latitude(deg)": -48.55163175716033,
        "Longitude(deg)": -70.12914474654801,
        "Mean Anomaly(deg)": -120.36729552714885,
        "RAAN(deg)": 169.99285916462438,
        "Satellite Name": "Test1 762",
        "Satellite Number": 762,
        "Semi-Major Axis(m)": 6980739.136638005,
        "Time(s)": 170
    },
    {
        "Altitude(m)": 620937.1137336199,
        "Argument of Periapsis(deg)": 0.001875410264393353,
        "Eccentricity": 0.0,
        "Inclination(deg)": 60.0,
        "Latitude(deg)": -48.95647227048603,
        "Longitude(deg)": -69.46363533189616,
        "Mean Anomaly(deg)": -119.74718938168702,
        "RAAN(deg)": 169.99243911548464,
        "Satellite Name": "Test1 762",
        "Satellite Number": 762,
        "Semi-Major Axis(m)": 6980739.136638005,
        "Time(s)": 180
    },
    {
        "Altitude(m)": 621097.6250070987,
        "Argument of Periapsis(deg)": 0.0019795997235263173,
        "Eccentricity": 0.0,
        "Inclination(deg)": 60.0,
        "Latitude(deg)": -49.35687393973233,
        "Longitude(deg)": -68.78667922021523,
        "Mean Anomaly(deg)": -119.12708323622518,
        "RAAN(deg)": 169.9920190663449,
        "Satellite Name": "Test1 762",
        "Satellite Number": 762,
        "Semi-Major Axis(m)": 6980739.136638005,
        "Time(s)": 190
    }
]